[{"OBJECT_NAME":"STARLINK-4292","OBJECT_ID":"2022-083AV","EPOCH":"2026-03-09T13:21:56.750976","MEAN_MOTION":15.08846761,"ECCENTRICITY":0.0001279,"INCLINATION":53.2166,"RA_OF_ASC_NODE":174.7173,"ARG_OF_PERICENTER":84.8248,"MEAN_ANOMALY":275.289,"EPHEMERIS_TYPE":0,"CLASSIFICATION_TYPE":"U","NORAD_CAT_ID":53175,"ELEMENT_SET_NO":999,"REV_AT_EPOCH":20119,"BSTAR":-0.00013269,"MEAN_MOTION_DOT":-2.399e-5,"MEAN_MOTION_DDOT":0},{"OBJECT_NAME":"ICEYE-X66","OBJECT_ID":"2025-248J","EPOCH":"2026-03-09T21:44:57.261984","MEAN_MOTION":15.08170847,"ECCENTRICITY":0.00050662,"INCLINATION":45.4014,"RA_OF_ASC_NODE":296.227,"ARG_OF_PERICENTER":203.4375,"MEAN_ANOMALY":156.6276,"EPHEMERIS_TYPE":0,"CLASSIFICATION_TYPE":"U","NORAD_CAT_ID":66301,"ELEMENT_SET_NO":999,"REV_AT_EPOCH":2051,"BSTAR":0.00021374435,"MEAN_MOTION_DOT":3.108e-5,"MEAN_MOTION_DDOT":0}]
